NORAD_CAT_ID,OBJECT_NAME,OBJECT_TYPE,EPOCH,MEAN_MOTION,ECCENTRICITY,INCLINATION,RA_OF_ASC_NODE,ARG_OF_PERICENTER,MEAN_ANOMALY,BSTAR,MEAN_MOTION_DOT,MEAN_MOTION_DDOT,TLE_LINE0,TLE_LINE1,TLE_LINE2,SEMIMAJOR_AXIS,PERIOD,APOGEE,PERIGEE,DECAYED
53927.0,STARLINK-5008,PAYLOAD,2022-12-09 06:00:02,15.69793863,0.0002108,53.2172,240.4567,15.2902,189.6967,-0.022563,-0.02411881,0.0,0 STARLINK-5008,1 53927U 22119AT  22343.25002315 -.02411881  00000-0 -22563-1 0  9999,2 53927  53.2172 240.4567 0002108  15.2902 189.6967 15.69793863 12282,6737.624,91.732,360.909,358.0680000000001,0.0
53927.0,STARLINK-5008,PAYLOAD,2022-12-09 14:00:01,15.68101623,0.0001587,53.2176,238.8161,36.6438,251.9692,-0.011591,-0.01186221,0.0,0 STARLINK-5008,1 53927U 22119AT  22343.58334491 -.01186221  00000-0 -11591-1 0  9993,2 53927  53.2176 238.8161 0001587  36.6438 251.9692 15.68101623  1303,6742.47,91.831,365.405,363.265,0.0
53927.0,STARLINK-5008,PAYLOAD,2022-12-10 00:00:00,15.67006973,0.0001247,53.2173,236.7726,51.5861,69.7358,-0.010895,-0.01059963,0.0,0 STARLINK-5008,1 53927U 22119AT  22344.00001157 -.01059963  00000-0 -10895-1 0  9999,2 53927  53.2173 236.7726 0001247  51.5861  69.7358 15.67006973 12401,6745.61,91.895,368.316,366.634,0.0
53927.0,STARLINK-5008,PAYLOAD,2022-12-10 14:00:01,15.65625214,0.0001675999999999,53.2174,233.9137,37.64,134.8415,-0.012228,-0.01136233,0.0,0 STARLINK-5008,1 53927U 22119AT  22344.58334491 -.01136233  00000-0 -12228-1 0  9990,2 53927  53.2174 233.9137 0001676  37.6400 134.8415 15.65625214 12497,6749.578,91.976,372.574,370.312,0.0
53927.0,STARLINK-5008,PAYLOAD,2022-12-11 00:00:00,15.64610365,0.000137,53.2175,231.8784,41.9865,319.5006,-0.012782,-0.01139738,0.0,0 STARLINK-5008,1 53927U 22119AT  22345.00001157 -.01139738  00000-0 -12782-1 0  9996,2 53927  53.2175 231.8784 0001370  41.9865 319.5006 15.64610365  1303,6752.496999999999,92.036,375.287,373.436,0.0
53927.0,STARLINK-5008,PAYLOAD,2022-12-11 06:00:00,15.63999778,0.000159,53.2172,230.6573,30.7499,299.4084,-0.013077,-0.01138202,0.0,0 STARLINK-5008,1 53927U 22119AT  22345.25001157 -.01138202  00000-0 -13077-1 0  9996,2 53927  53.2172 230.6573 0001590  30.7499 299.4084 15.63999778 12598,6754.254,92.072,377.193,375.045,0.0
53927.0,STARLINK-5008,PAYLOAD,2022-12-11 14:00:01,15.63183164,0.0001179,53.2173,229.0293,53.0458,354.4879,-0.013465,-0.01134789,0.0,0 STARLINK-5008,1 53927U 22119AT  22345.58334491 -.01134789  00000-0 -13465-1 0  9999,2 53927  53.2173 229.0293 0001179  53.0458 354.4879 15.63183164  1301,6756.606,92.12,379.268,377.674,0.0
53927.0,STARLINK-5008,PAYLOAD,2022-12-11 22:00:01,15.62369494,0.0001732,53.2172,227.4069,36.4379,87.5544,-0.01389,-0.01133953,0.0,0 STARLINK-5008,1 53927U 22119AT  22345.91668981 -.01133953  00000-0 -13890-1 0  9994,2 53927  53.2172 227.4069 0001732  36.4379  87.5544 15.62369494 12705,6758.9519999999975,92.168,381.987,379.646,0.0
53927.0,STARLINK-5008,PAYLOAD,2022-12-12 14:00:01,15.60741603,0.0001341,53.2173,224.1627,50.4953,223.289,-0.014786,-0.01132766,0.0,0 STARLINK-5008,1 53927U 22119AT  22346.58334491 -.01132766  00000-0 -14786-1 0  9990,2 53927  53.2173 224.1627 0001341  50.4953 223.2890 15.60741603 12808,6763.651,92.264,386.423,384.609,0.0
53927.0,STARLINK-5008,PAYLOAD,2022-12-12 22:00:00,15.59929537,0.0001675,53.2175,222.5463,31.3192,315.9246,-0.015289,-0.01135009,0.0,0 STARLINK-5008,1 53927U 22119AT  22346.91667824 -.01135009  00000-0 -15289-1 0  9998,2 53927  53.2175 222.5463 0001675  31.3192 315.9246 15.59929537  1302,6765.998000000001,92.312,388.996,386.73,0.0
53927.0,STARLINK-5008,PAYLOAD,2022-12-13 14:00:01,15.58301176,0.0001776999999999,53.2174,219.3139,34.8077,96.4265,-0.016249,-0.01133595,0.0,0 STARLINK-5008,1 53927U 22119AT  22347.58334491 -.01133595  00000-0 -16249-1 0  9998,2 53927  53.2174 219.3139 0001777  34.8077  96.4265 15.58301176  1302,6770.71,92.408,393.779,391.372,0.0
53927.0,STARLINK-5008,PAYLOAD,2022-12-13 22:00:00,15.57486192,0.0001804,53.2174,217.7035,37.9917,163.7694,-0.0167159999999999,-0.01130992,0.0,0 STARLINK-5008,1 53927U 22119AT  22347.91667824 -.01130992  00000-0 -16716-1 0  9991,2 53927  53.2174 217.7035 0001804  37.9917 163.7694 15.57486192 13013,6773.071999999999,92.457,396.159,393.715,0.0
53927.0,STARLINK-5008,PAYLOAD,2022-12-14 02:00:01,15.56953809,0.0001728,53.2173,216.8977,30.4032,26.2801,-0.012074,-0.00813575,0.0,0 STARLINK-5008,1 53927U 22119AT  22348.08334491 -.00813575  00000-0 -12074-1 0  9998,2 53927  53.2173 216.8977 0001728  30.4032  26.2801 15.56953809 13047,6774.616,92.488,397.652,395.31,0.0
53927.0,STARLINK-5008,PAYLOAD,2022-12-14 14:00:01,15.55858213,0.0001424,53.2173,214.4827,39.9615,299.9227,-0.01775,-0.01129758,0.0,0 STARLINK-5008,1 53927U 22119AT  22348.58334491 -.01129758  00000-0 -17750-1 0  9993,2 53927  53.2173 214.4827 0001424  39.9615 299.9227 15.55858213 13110,6777.795999999999,92.553,400.626,398.696,0.0
53927.0,STARLINK-5008,PAYLOAD,2022-12-14 22:00:00,15.55048149,0.0001506999999999,53.2167,212.8785,40.397,7.0782,-0.018379,-0.01134605,0.0,0 STARLINK-5008,1 53927U 22119AT  22348.91667824 -.01134605  00000-0 -18379-1 0  9994,2 53927  53.2167 212.8785 0001507  40.3970   7.0782 15.55048149  1301,6780.15,92.602,403.036,400.99300000000005,0.0
53927.0,STARLINK-5008,PAYLOAD,2022-12-15 06:00:00,15.54231809,0.0001537,53.2173,211.2732,42.5066,71.5867,-0.018866,-0.01130511,0.0,0 STARLINK-5008,1 53927U 22119AT  22349.25001157 -.01130511  00000-0 -18866-1 0  9996,2 53927  53.2173 211.2732 0001537  42.5066  71.5867 15.54231809 13226,6782.524,92.65,405.431,403.346,0.0
53927.0,STARLINK-5008,PAYLOAD,2022-12-15 14:00:01,15.53418343,0.0001534,53.2174,209.6693,50.5108,129.2214,-0.019438,-0.01130511,0.0,0 STARLINK-5008,1 53927U 22119AT  22349.58334491 -.01130511  00000-0 -19438-1 0  9998,2 53927  53.2174 209.6693 0001534  50.5108 129.2214 15.53418343  1309,6784.891,92.699,407.797,405.715,0.0
53927.0,STARLINK-5008,PAYLOAD,2022-12-15 22:00:00,15.526037099999998,0.0001535,53.2175,208.0707,49.7932,194.5988,-0.02,-0.01129261,0.0,0 STARLINK-5008,1 53927U 22119AT  22349.91667824 -.01129261  00000-0 -20000-1 0  9991,2 53927  53.2175 208.0707 0001535  49.7932 194.5988 15.52603710 13326,6787.264,92.747,410.171,408.087,0.0
53927.0,STARLINK-5008,PAYLOAD,2022-12-16 14:00:01,15.50887185,0.0001736,53.2166,204.8738,28.3102,342.5107,-0.0187,-0.01004137,0.0,0 STARLINK-5008,1 53927U 22119AT  22350.58334491 -.01004137  00000-0 -18700-1 0  9995,2 53927  53.2166 204.8738 0001736  28.3102 342.5107 15.50887185 13437,6792.271,92.85,415.316,412.957,0.0
53927.0,STARLINK-5008,PAYLOAD,2022-12-16 22:00:00,15.50164339,0.0001968,53.2175,203.2808,28.5561,43.9496,-0.021885,-0.01131579,0.0,0 STARLINK-5008,1 53927U 22119AT  22350.91667824 -.01131579  00000-0 -21885-1 0  9990,2 53927  53.2175 203.2808 0001968  28.5561  43.9496 15.50164339 13483,6794.3830000000025,92.893,417.585,414.911,0.0
53927.0,STARLINK-5008,PAYLOAD,2022-12-17 14:00:01,15.48533314,0.0001682,53.2165,200.0956,34.4752,158.6172,-0.023034,-0.0114115,0.0,0 STARLINK-5008,1 53927U 22119AT  22351.58335648 -.01141150  00000-0 -23034-1 0  9994,2 53927  53.2165 200.0956 0001682  34.4752 158.6172 15.48533314  1305,6799.153,92.991,422.161,419.874,0.0
53927.0,STARLINK-5008,PAYLOAD,2022-12-17 22:00:00,15.47739484,0.0001409,53.2167,198.5086,59.9618,191.8497,-0.024341,-0.01169934,0.0,0 STARLINK-5008,1 53927U 22119AT  22351.91667824 -.01169934  00000-0 -24341-1 0  9997,2 53927  53.2167 198.5086 0001409  59.9618 191.8497 15.47739484 13635,6801.478,93.039,424.301,422.384,0.0
53927.0,STARLINK-5008,PAYLOAD,2022-12-18 14:00:01,15.46092513,0.0001193,53.2175,195.3346,60.3972,306.0777,-0.025094,-0.01141391,0.0,0 STARLINK-5008,1 53927U 22119AT  22352.58334491 -.01141391  00000-0 -25094-1 0  9995,2 53927  53.2175 195.3346 0001193  60.3972 306.0777 15.46092513  1303,6806.307,93.138,428.984,427.36,0.0
53927.0,STARLINK-5008,PAYLOAD,2022-12-18 22:00:00,15.45281311,0.0001527,53.2175,193.7535,43.1963,19.1365,-0.025924,-0.01146211,0.0,0 STARLINK-5008,1 53927U 22119AT  22352.91667824 -.01146211  00000-0 -25924-1 0  9999,2 53927  53.2175 193.7535 0001527  43.1963  19.1365 15.45281311  1305,6808.689,93.187,431.593,429.514,0.0
53927.0,STARLINK-5008,PAYLOAD,2022-12-19 04:00:00,15.44670493,0.0001594,53.2173,192.5669,34.0663,339.5203,-0.026444,-0.01145038,0.0,0 STARLINK-5008,1 53927U 22119AT  22353.16667824 -.01145038  00000-0 -26444-1 0  9991,2 53927  53.2173 192.5669 0001594  34.0663 339.5203 15.44670493 13831,6810.483,93.224,433.434,431.263,0.0
53927.0,STARLINK-5008,PAYLOAD,2022-12-19 10:00:00,15.44056869,0.0001471,53.2174,191.3806,39.6623,284.6294,-0.026864,-0.01139521,0.0,0 STARLINK-5008,1 53927U 22119AT  22353.41667824 -.01139521  00000-0 -26864-1 0  9995,2 53927  53.2174 191.3806 0001471  39.6623 284.6294 15.44056869  1307,6812.288000000001,93.261,435.155,433.151,0.0
53927.0,STARLINK-5008,PAYLOAD,2022-12-19 22:00:00,15.42837272,0.0001759,53.2177,189.0162,42.5697,181.4763,-0.028023,-0.01140394,0.0,0 STARLINK-5008,1 53927U 22119AT  22353.91667824 -.01140394  00000-0 -28023-1 0  9999,2 53927  53.2177 189.0162 0001759  42.5697 181.4763 15.42837272 13943,6815.877,93.335,438.941,436.543,0.0
53927.0,STARLINK-5008,PAYLOAD,2022-12-20 14:00:01,15.41227079,0.0001444,53.2166,185.8659,44.8318,282.1259,-0.030254,-0.01163882,0.0,0 STARLINK-5008,1 53927U 22119AT  22354.58334491 -.01163882  00000-0 -30254-1 0  9990,2 53927  53.2166 185.8659 0001444  44.8318 282.1259 15.41227079 14040,6820.624,93.432,443.474,441.504,0.0
53927.0,STARLINK-5008,PAYLOAD,2022-12-21 14:00:01,15.38768063,0.0001674,53.2178,181.1575,41.9717,72.0394,-0.032067,-0.01139222,0.0,0 STARLINK-5008,1 53927U 22119AT  22355.58334491 -.01139222  00000-0 -32067-1 0  9996,2 53927  53.2178 181.1575 0001674  41.9717  72.0394 15.38768063 14208,6827.888000000001,93.581,450.896,448.61,0.0
